{
  "type": "FeatureCollection",
  "features": [
    {
      "type": "Feature",
      "properties": {
        "norad_id": 47052,
        "name": "COSMOS 2251 DEB",
        "group": "cosmos-2251-debris",
        "lat": -13.142260062266285,
        "lon": -41.35488730644237,
        "alt_km": 749.5127803761861,
        "timestamp": "2025-12-22T11:33:20.838523+00:00",
        "meta_object_name": "COSMOS 2251 DEB",
        "meta_object_id": "1993-036BXG",
        "meta_epoch": "2025-12-13T17:42:34.547904",
        "meta_mean_motion": 14.35482778,
        "meta_eccentricity": 0.00580984,
        "meta_inclination": 74.0478,
        "meta_ra_of_asc_node": 338.4955,
        "meta_arg_of_pericenter": 52.4094,
        "meta_mean_anomaly": 127.807,
        "meta_ephemeris_type": 0,
        "meta_classification_type": "U",
        "meta_norad_cat_id": 47052,
        "meta_element_set_no": 999,
        "meta_rev_at_epoch": 61803,
        "meta_bstar": 0.00037288685,
        "meta_mean_motion_dot": 1.067e-05,
        "meta_mean_motion_ddot": 0,
        "tle_line1": "1 47052U 93036BXG 25347.73789986  .00001067  00000+0  37289-3 0  9992",
        "tle_line2": "2 47052  74.0478 338.4955 0058098  52.4094 127.8070 14.35482778618033"
      },
      "geometry": {
        "type": "Point",
        "coordinates": [
          -41.35488730644237,
          -13.142260062266285
        ]
      }
    },
    {
      "type": "Feature",
      "properties": {
        "norad_id": 47053,
        "name": "COSMOS 2251 DEB",
        "group": "cosmos-2251-debris",
        "lat": -20.6324177448255,
        "lon": -127.88458236615055,
        "alt_km": 941.2790483569597,
        "timestamp": "2025-12-22T11:33:20.838533+00:00",
        "meta_object_name": "COSMOS 2251 DEB",
        "meta_object_id": "1993-036BXH",
        "meta_epoch": "2025-12-21T23:22:14.227392",
        "meta_mean_motion": 13.59701409,
        "meta_eccentricity": 0.0377548,
        "meta_inclination": 74.0593,
        "meta_ra_of_asc_node": 239.1144,
        "meta_arg_of_pericenter": 50.5889,
        "meta_mean_anomaly": 327.7768,
        "meta_ephemeris_type": 0,
        "meta_classification_type": "U",
        "meta_norad_cat_id": 47053,
        "meta_element_set_no": 999,
        "meta_rev_at_epoch": 29014,
        "meta_bstar": 0.0013675,
        "meta_mean_motion_dot": 1.606e-05,
        "meta_mean_motion_ddot": 0,
        "tle_line1": "1 47053U 93036BXH 25355.97377578  .00001606  00000+0  13675-2 0  9999",
        "tle_line2": "2 47053  74.0593 239.1144 0377548  50.5889 327.7768 13.59701409290147"
      },
      "geometry": {
        "type": "Point",
        "coordinates": [
          -127.88458236615055,
          -20.6324177448255
        ]
      }
    },
    {
      "type": "Feature",
      "properties": {
        "norad_id": 47059,
        "name": "COSMOS 2251 DEB",
        "group": "cosmos-2251-debris",
        "lat": 2.076945657529362,
        "lon": 34.55164897132199,
        "alt_km": 535.4639380546414,
        "timestamp": "2025-12-22T11:33:20.838543+00:00",
        "meta_object_name": "COSMOS 2251 DEB",
        "meta_object_id": "1993-036BXP",
        "meta_epoch": "2025-12-16T01:10:48.054720",
        "meta_mean_motion": 15.13144812,
        "meta_eccentricity": 0.00128667,
        "meta_inclination": 73.98,
        "meta_ra_of_asc_node": 228.534,
        "meta_arg_of_pericenter": 42.2566,
        "meta_mean_anomaly": 26.5019,
        "meta_ephemeris_type": 0,
        "meta_classification_type": "U",
        "meta_norad_cat_id": 47059,
        "meta_element_set_no": 999,
        "meta_rev_at_epoch": 8355,
        "meta_bstar": 0.0018804977,
        "meta_mean_motion_dot": 0.00033522,
        "meta_mean_motion_ddot": 0,
        "tle_line1": "1 47059U 93036BXP 25350.04916730  .00033522  00000+0  18805-2 0  9999",
        "tle_line2": "2 47059  73.9800 228.5340 0012866  42.2566  26.5019 15.13144812 83550"
      },
      "geometry": {
        "type": "Point",
        "coordinates": [
          34.55164897132199,
          2.076945657529362
        ]
      }
    },
    {
      "type": "Feature",
      "properties": {
        "norad_id": 47062,
        "name": "COSMOS 2251 DEB",
        "group": "cosmos-2251-debris",
        "lat": -48.50655887601598,
        "lon": 43.29330347252857,
        "alt_km": 1123.7451330714202,
        "timestamp": "2025-12-22T11:33:20.838553+00:00",
        "meta_object_name": "COSMOS 2251 DEB",
        "meta_object_id": "1993-036BXS",
        "meta_epoch": "2025-12-13T23:56:30.676992",
        "meta_mean_motion": 13.71952164,
        "meta_eccentricity": 0.03233862,
        "meta_inclination": 74.0831,
        "meta_ra_of_asc_node": 76.1003,
        "meta_arg_of_pericenter": 201.6929,
        "meta_mean_anomaly": 337.1469,
        "meta_ephemeris_type": 0,
        "meta_classification_type": "U",
        "meta_norad_cat_id": 47062,
        "meta_element_set_no": 999,
        "meta_rev_at_epoch": 55619,
        "meta_bstar": 0.0017198262,
        "meta_mean_motion_dot": 2.244e-05,
        "meta_mean_motion_ddot": 0,
        "tle_line1": "1 47062U 93036BXS 25347.99757728  .00002244  00000+0  17198-2 0  9994",
        "tle_line2": "2 47062  74.0831  76.1003 0323386 201.6929 337.1469 13.71952164556193"
      },
      "geometry": {
        "type": "Point",
        "coordinates": [
          43.29330347252857,
          -48.50655887601598
        ]
      }
    },
    {
      "type": "Feature",
      "properties": {
        "norad_id": 47068,
        "name": "COSMOS 2251 DEB",
        "group": "cosmos-2251-debris",
        "lat": 29.17351535522294,
        "lon": -165.7264664238795,
        "alt_km": 719.7442495031701,
        "timestamp": "2025-12-22T11:33:20.838563+00:00",
        "meta_object_name": "COSMOS 2251 DEB",
        "meta_object_id": "1993-036BXY",
        "meta_epoch": "2025-12-21T18:53:38.324832",
        "meta_mean_motion": 14.5320428,
        "meta_eccentricity": 0.0018248,
        "meta_inclination": 74.0228,
        "meta_ra_of_asc_node": 186.3806,
        "meta_arg_of_pericenter": 272.8072,
        "meta_mean_anomaly": 87.1001,
        "meta_ephemeris_type": 0,
        "meta_classification_type": "U",
        "meta_norad_cat_id": 47068,
        "meta_element_set_no": 999,
        "meta_rev_at_epoch": 61888,
        "meta_bstar": 0.00062182,
        "meta_mean_motion_dot": 2.555e-05,
        "meta_mean_motion_ddot": 0,
        "tle_line1": "1 47068U 93036BXY 25355.78724913  .00002555  00000+0  62182-3 0  9995",
        "tle_line2": "2 47068  74.0228 186.3806 0018248 272.8072  87.1001 14.53204280618880"
      },
      "geometry": {
        "type": "Point",
        "coordinates": [
          -165.7264664238795,
          29.17351535522294
        ]
      }
    },
    {
      "type": "Feature",
      "properties": {
        "norad_id": 47073,
        "name": "COSMOS 2251 DEB",
        "group": "cosmos-2251-debris",
        "lat": -57.58099032768469,
        "lon": 158.18941425740056,
        "alt_km": 857.6516115253298,
        "timestamp": "2025-12-22T11:33:20.838595+00:00",
        "meta_object_name": "COSMOS 2251 DEB",
        "meta_object_id": "1993-036BYD",
        "meta_epoch": "2025-12-20T05:09:22.277088",
        "meta_mean_motion": 14.04735867,
        "meta_eccentricity": 0.0161533,
        "meta_inclination": 74.0811,
        "meta_ra_of_asc_node": 188.8357,
        "meta_arg_of_pericenter": 225.3344,
        "meta_mean_anomaly": 133.4535,
        "meta_ephemeris_type": 0,
        "meta_classification_type": "U",
        "meta_norad_cat_id": 47073,
        "meta_element_set_no": 999,
        "meta_rev_at_epoch": 60466,
        "meta_bstar": 0.00045488,
        "meta_mean_motion_dot": 7.94e-06,
        "meta_mean_motion_ddot": 0,
        "tle_line1": "1 47073U 93036BYD 25354.21484117  .00000794  00000+0  45488-3 0  9990",
        "tle_line2": "2 47073  74.0811 188.8357 0161533 225.3344 133.4535 14.04735867604667"
      },
      "geometry": {
        "type": "Point",
        "coordinates": [
          158.18941425740056,
          -57.58099032768469
        ]
      }
    },
    {
      "type": "Feature",
      "properties": {
        "norad_id": 47074,
        "name": "COSMOS 2251 DEB",
        "group": "cosmos-2251-debris",
        "lat": 73.59905971718666,
        "lon": 35.2248103851594,
        "alt_km": 841.0536776510362,
        "timestamp": "2025-12-22T11:33:20.838606+00:00",
        "meta_object_name": "COSMOS 2251 DEB",
        "meta_object_id": "1993-036BYE",
        "meta_epoch": "2025-12-16T13:32:26.153376",
        "meta_mean_motion": 14.35650419,
        "meta_eccentricity": 0.01449048,
        "meta_inclination": 74.0928,
        "meta_ra_of_asc_node": 301.7157,
        "meta_arg_of_pericenter": 328.8455,
        "meta_mean_anomaly": 153.2821,
        "meta_ephemeris_type": 0,
        "meta_classification_type": "U",
        "meta_norad_cat_id": 47074,
        "meta_element_set_no": 999,
        "meta_rev_at_epoch": 2737,
        "meta_bstar": 0.0011411657,
        "meta_mean_motion_dot": 3.683e-05,
        "meta_mean_motion_ddot": 0,
        "tle_line1": "1 47074U 93036BYE 25350.56419159  .00003683  00000+0  11412-2 0  9998",
        "tle_line2": "2 47074  74.0928 301.7157 0144904 328.8455 153.2821 14.35650419 27374"
      },
      "geometry": {
        "type": "Point",
        "coordinates": [
          35.2248103851594,
          73.59905971718666
        ]
      }
    }
  ]
}